
HAIYANG-2B              
1 43655U 18081A   24359.54707349  .00000027  00000+0  69103-4 0  9994
2 43655  99.3360   5.2872 0000312 272.9815  87.1301 13.79304236310539
COSMOS 2528             
1 43657U 18082A   24359.57776345  .00000024  00000+0  71794-4 0  9998
2 43657  67.1495 309.2254 0006368 287.8551  72.1839 13.96650965314595
CFOSAT                  
1 43662U 18083A   24359.54543219  .00026951  00000+0  13914-2 0  9999
2 43662  97.3682   8.8156 0003543  20.2690 136.5880 15.16278058340742
GOSAT 2                 
1 43672U 18084B   24359.56407248  .00006198  00000+0  74572-3 0  9993
2 43672  97.8449 107.8795 0001557  94.3336 265.8056 14.84260086333514
KHALIFASAT              
1 43676U 18084F   24359.56444395  .00007003  00000+0  60675-3 0  9996
2 43676  98.0599 150.5344 0014285  98.1026 262.1816 14.97364498334894
TEN-KOH                 
1 43677U 18084G   24359.40311219  .00007550  00000+0  63065-3 0  9991
2 43677  98.0808 159.1707 0015366 105.0227 255.2696 14.98748389335186
DIWATA-2B               
1 43678U 18084H   24359.55871990  .00004144  00000+0  36591-3 0  9995
2 43678  98.0883 163.6078 0010113 115.8299 244.3966 14.96924799335384
STARS-AO                
1 43679U 18084J   24359.43439364  .00014304  00000+0  95136-3 0  9997
2 43679  98.0674 171.6521 0002538 181.6392 178.4826 15.07275190335875
AUTCUBE 2               
1 43681U 18084K   24359.56254844  .00010213  00000+0  75269-3 0  9992
2 43681  98.0720 167.8651 0010850  63.8883 296.3456 15.03482334335643
BEIDOU-3 G1             
1 43683U 18085A   24359.63959321 -.00000254  00000+0  00000+0 0  9997
2 43683   2.6653 102.9800 0001195  52.9298 308.0647  1.00270903 22654
COSMOS 2529 [GLONASS-M] 
1 43687U 18086A   24358.59480328  .00000079  00000+0  00000+0 0  9996
2 43687  64.2934 210.8618 0006868 260.0510  99.9441  2.13102110 47767
METOP-C                 
1 43689U 18087A   24359.54268885  .00000347  00000+0  17842-3 0  9991
2 43689  98.7001  56.3497 0000363 221.5079 138.6071 14.21501105318164
GSAT-29                 
1 43698U 18089A   24359.46790417  .00000108  00000+0  00000+0 0  9994
2 43698   0.0618 264.9058 0003402 345.3355  66.8057  1.00275623 22381
ES'HAIL 2               
1 43700U 18090A   24359.53375965  .00000169  00000+0  00000+0 0  9992
2 43700   0.0142 304.6380 0002512  14.9030 351.9913  1.00273190 22260
BEIDOU-3 M17            
1 43706U 18093A   24359.13179052  .00000101  00000+0  00000+0 0  9992
2 43706  54.1957 200.6209 0006267 300.9656  59.0356  1.86228595 41483
BEIDOU-3 M18            
1 43707U 18093B   24358.99557438  .00000099  00000+0  00000+0 0  9990
2 43707  54.1970 200.6173 0006219 343.5955  16.4468  1.86230112 41479
TIANZHI 1               
1 43710U 18094A   24359.53630989  .00045780  00000+0  67816-3 0  9997
2 43710  97.3584  20.5765 0004553 318.5627  41.5281 15.55124580340102
SHIYAN 6 01 (SY-6 01)   
1 43711U 18094B   24359.51636063  .00010158  00000+0  44475-3 0  9992
2 43711  97.3841   9.8532 0013183 254.0490 105.9294 15.22147952339178
TIANPING 1B             
1 43714U 18094E   24359.55747672  .00038510  00000+0  60194-3 0  9996
2 43714  97.3505  20.8754 0005367 313.1380  46.9424 15.53677169340147
MOHAMMED VI-B           
1 43717U 18095A   24359.54479759  .00002251  00000+0  32564-3 0  9990
2 43717  97.9576  68.6052 0001071  98.1965 261.9366 14.77117475328528
HYSIS                   
1 43719U 18096A   24359.60637341  .00003166  00000+0  43774-3 0  9994
2 43719  97.8435  58.9994 0001908  82.6459 277.4969 14.78761048327684
COSMOS 2530             
1 43751U 18097A   24359.55698398  .00000048  00000+0  27097-3 0  9990
2 43751  82.5134 197.2209 0019922 131.5389 228.7403 12.42894710275253
COSMOS 2531             
1 43752U 18097B   24359.58291992  .00000051  00000+0  29376-3 0  9999
2 43752  82.5180 198.0661 0016956 148.6388 211.5707 12.42902784275278
COSMOS 2532             
1 43753U 18097C   24359.61010573  .00000042  00000+0  23384-3 0  9991
2 43753  82.5124 197.0799 0018268 151.3156 208.8933 12.42902318275240
MINXSS-2                
1 43758U 18099A   24359.58966037  .00023758  00000+0  11782-2 0  9996
2 43758  97.5295  59.8216 0014230  25.7828 334.4112 15.17637085331579
SIRION PATHFINDER-2     
1 43759U 18099B   24359.42526628  .00010804  00000+0  72717-3 0  9992
2 43759  97.5053  50.4589 0010364   6.9593 353.1777 15.06846766331117
STPSAT-5                
1 43762U 18099E   24359.56654872  .00009332  00000+0  62795-3 0  9993
2 43762  97.4892  52.8549 0004650  49.5377 310.6256 15.06928533331402
POLAR SCOUT KODIAK      
1 43764U 18099G   24359.42120936  .00030178  00000+0  13459-2 0  9993
2 43764  97.4949  61.1471 0012843   9.5458 350.6019 15.21275187331805
HAWK-A                  
1 43765U 18099H   24359.42458086  .00009622  00000+0  65049-3 0  9997
2 43765  97.4736  50.8990 0008983   1.1169 359.0077 15.06722851331252
SPAWAR-CAL-O            
1 43766U 18099J   24359.56448084  .00020695  00000+0  11244-2 0  9990
2 43766  97.5157  53.8563 0013286  34.0215 326.1866 15.14455458331301
CORVUS BC4              
1 43767U 18099K   24359.10707247  .00008708  00000+0  60582-3 0  9991
2 43767  97.4861  46.6995 0010833  60.9730 299.2581 15.05670834330936
AISTECHSAT 2            
1 43768U 18099L   24359.54927794  .00011019  00000+0  73600-3 0  9995
2 43768  97.5112  48.7244 0005775  15.5801 344.5603 15.07156514330756
FOX-1CLIFF (AO-95)      
1 43770U 18099N   24359.39833630  .00016524  00000+0  96105-3 0  9997
2 43770  97.5197  53.6799 0013310  73.4434 286.8257 15.12063180331241
RANGE-A                 
1 43773U 18099R   24359.56483489  .00010464  00000+0  71557-3 0  9993
2 43773  97.4757  46.8710 0012957  48.7887 311.4455 15.06240152331058
HIBER-2                 
1 43774U 18099S   24359.46011434  .00039325  00000+0  16288-2 0  9996
2 43774  97.5176  60.6832 0007280  15.6259 344.5201 15.23782499331615
SPAWAR-CAL-R            
1 43776U 18099U   24359.60701250  .00005409  00000+0  41505-3 0  9993
2 43776  97.5200  46.8157 0021362  42.8453 317.4432 15.02014115330890
SPAWAR-CAL-OR           
1 43778U 18099W   24359.56634121  .00015435  00000+0  92968-3 0  9991
2 43778  97.4622  47.7789 0015849  39.3599 320.8779 15.10779026330828
MOVE-II                 
1 43780U 18099Y   24359.15661127  .00062067  00000+0  18504-2 0  9991
2 43780  97.4942  62.3007 0004760  39.6566 320.5024 15.34428262331852
SNUSAT-2                
1 43782U 18099AA  24359.43847512  .00015786  00000+0  96516-3 0  9994
2 43782  97.4885  51.7274 0013528  16.4407 343.7259 15.10259701331230
KAZSTSAT                
1 43783U 18099AB  24359.53322750  .00003304  00000+0  28569-3 0  9994
2 43783  97.5008  43.2499 0008444  67.8889 292.3229 14.97817586330464
SNUGLITE                
1 43784U 18099AC  24359.39567959  .00016867  00000+0  97540-3 0  9994
2 43784  97.4698  51.0111 0004479  35.3879 324.7648 15.12330522331329
ITASAT                  
1 43786U 18099AE  24359.15738011  .00013108  00000+0  82604-3 0  9999
2 43786  97.4857  51.3852 0016894  65.7848 294.5144 15.09152862331173
KAZSCISAT-1             
1 43787U 18099AF  24359.42410777  .00067628  00000+0  21680-2 0  9998
2 43787  97.4810  58.8836 0004415  10.4521 349.6812 15.32087974331865
EAGLET-I                
1 43790U 18099AJ  24359.38974692  .00008808  00000+0  59969-3 0  9995
2 43790  97.5036  51.9857 0013740  46.7903 313.4469 15.06443580330871
ESEO                    
1 43792U 18099AL  24359.52789663  .00004065  00000+0  31911-3 0  9993
2 43792  97.4811  47.4627 0008652  17.9738 342.1791 15.01432735330748
CSIM-FD                 
1 43793U 18099AM  24359.13586126  .00063599  00000+0  19207-2 0  9990
2 43793  97.5099  64.1535 0008160   8.8290 351.3094 15.33991068331695
HAWK-B                  
1 43794U 18099AN  24359.55862244  .00009474  00000+0  64114-3 0  9995
2 43794  97.4737  51.0269 0008968   2.8485 357.2792 15.06689836331269
THEA                    
1 43796U 18099AQ  24359.43288155  .00020511  00000+0  10931-2 0  9999
2 43796  97.5216  58.5949 0011781  29.4836 330.7058 15.15160037330439
SKYSAT-C12              
1 43797U 18099AR  24359.07345382  .00002926  00000+0  92593-4 0  9992
2 43797  96.9939  37.7381 0004471   7.2578 352.8730 15.33495131338738
ASTROCAST 0.1           
1 43798U 18099AS  24359.45478612  .00025470  00000+0  11567-2 0  9997
2 43798  97.5114  60.8033 0008608 349.9457  10.1605 15.20731632331700
HAWK-C                  
1 43799U 18099AT  24359.55856375  .00009305  00000+0  62978-3 0  9997
2 43799  97.4737  50.9233 0008912   2.0934 358.0329 15.06690790332013
ICEYE-X2                
1 43800U 18099AU  24359.58297819  .00011656  00000+0  74960-3 0  9991
2 43800  97.5146  52.7279 0012617  13.6388 346.5179 15.08489879331200
SKYSAT-C13              
1 43802U 18099AW  24359.40726915  .00028801  00000+0  69846-3 0  9995
2 43802  97.0193  46.5413 0010506  76.8747 283.3672 15.40955117338746
JY1SAT (JO-97)          
1 43803U 18099AX  24359.60664097  .00018889  00000+0  10243-2 0  9991
2 43803  97.4949  54.6540 0008686  16.1619 343.9889 15.14588081331448
SUOMI-100               
1 43804U 18099AY  24359.40015618  .00017033  00000+0  96408-3 0  9997
2 43804  97.5013  54.1081 0014044  14.2591 345.9034 15.13025661331375
AL-FARABI 2             
1 43805U 18099AZ  24359.14181974  .00031011  00000+0  13638-2 0  9993
2 43805  97.4837  57.0029 0008349   0.1603 359.9634 15.21792715331610
EUCROPIS                
1 43807U 18099BB  24359.43540813  .00013474  00000+0  83291-3 0  9994
2 43807  97.5011  53.7324 0007272  22.7570 337.3981 15.09948524330706
POLAR SCOUT YUKON       
1 43808U 18099BC  24359.45480790  .00023198  00000+0  12176-2 0  9991
2 43808  97.5366  59.0527 0008959  71.4486 288.7719 15.15699336331175
